STARLINK-33727          
1 63719U 25087Y   26068.69432025  .00028693  00000+0  97596-3 0  9997
2 63719  53.1582 219.2984 0000586  92.8431 267.2637 15.30239099 49202
SCS-01 D                
1 63985U 25100D   26068.75607686  .00032471  00000+0  10528-2 0  9990
2 63985  97.3730 145.4097 0006346 266.2302  93.8214 15.31902149 45621
